{
  "type": "FeatureCollection",
  "features": [
    {
      "type": "Feature",
      "properties": {
        "norad_id": 44794,
        "name": "BEIDOU-3 M21 (C43)",
        "group": "beidou",
        "lat": 4.484368316628899,
        "lon": -50.86596541760159,
        "alt_km": 21516.17300246651,
        "timestamp": "2025-12-25T19:00:39.616356+00:00",
        "meta_object_name": "BEIDOU-3 M21 (C43)",
        "meta_object_id": "2019-078B",
        "meta_epoch": "2025-12-24T17:02:19.367232",
        "meta_mean_motion": 1.86227908,
        "meta_eccentricity": 0.00042825,
        "meta_inclination": 54.0707,
        "meta_ra_of_asc_node": 305.9315,
        "meta_arg_of_pericenter": 12.8076,
        "meta_mean_anomaly": 347.2122,
        "meta_ephemeris_type": 0,
        "meta_classification_type": "U",
        "meta_norad_cat_id": 44794,
        "meta_element_set_no": 999,
        "meta_rev_at_epoch": 4140,
        "meta_bstar": 0,
        "meta_mean_motion_dot": -5.2e-07,
        "meta_mean_motion_ddot": 0,
        "tle_line1": "1 44794U 19078B   25358.70994638 -.00000052  00000+0  00000+0 0  9998",
        "tle_line2": "2 44794  54.0707 305.9315 0004282  12.8076 347.2122  1.86227908 41402"
      },
      "geometry": {
        "type": "Point",
        "coordinates": [
          -50.86596541760159,
          4.484368316628899
        ]
      }
    },
    {
      "type": "Feature",
      "properties": {
        "norad_id": 44864,
        "name": "BEIDOU-3 M19 (C41)",
        "group": "beidou",
        "lat": -17.54798233014517,
        "lon": -99.33485454233664,
        "alt_km": 21525.00796990538,
        "timestamp": "2025-12-25T19:00:39.616368+00:00",
        "meta_object_name": "BEIDOU-3 M19 (C41)",
        "meta_object_id": "2019-090A",
        "meta_epoch": "2025-12-24T13:05:33.212256",
        "meta_mean_motion": 1.86231537,
        "meta_eccentricity": 0.00184016,
        "meta_inclination": 56.4026,
        "meta_ra_of_asc_node": 68.5704,
        "meta_arg_of_pericenter": 285.2046,
        "meta_mean_anomaly": 160.4424,
        "meta_ephemeris_type": 0,
        "meta_classification_type": "U",
        "meta_norad_cat_id": 44864,
        "meta_element_set_no": 999,
        "meta_rev_at_epoch": 4098,
        "meta_bstar": 0,
        "meta_mean_motion_dot": -2.5e-07,
        "meta_mean_motion_ddot": 0,
        "tle_line1": "1 44864U 19090A   25358.54552329 -.00000025  00000+0  00000+0 0  9999",
        "tle_line2": "2 44864  56.4026  68.5704 0018401 285.2046 160.4424  1.86231537 40980"
      },
      "geometry": {
        "type": "Point",
        "coordinates": [
          -99.33485454233664,
          -17.54798233014517
        ]
      }
    },
    {
      "type": "Feature",
      "properties": {
        "norad_id": 44865,
        "name": "BEIDOU-3 M20 (C42)",
        "group": "beidou",
        "lat": -51.06337182067629,
        "lon": 13.325534376418641,
        "alt_km": 21490.642684450766,
        "timestamp": "2025-12-25T19:00:39.616385+00:00",
        "meta_object_name": "BEIDOU-3 M20 (C42)",
        "meta_object_id": "2019-090B",
        "meta_epoch": "2025-12-24T09:14:17.322144",
        "meta_mean_motion": 1.86231611,
        "meta_eccentricity": 0.00155264,
        "meta_inclination": 56.4041,
        "meta_ra_of_asc_node": 68.61,
        "meta_arg_of_pericenter": 297.3537,
        "meta_mean_anomaly": 130.233,
        "meta_ephemeris_type": 0,
        "meta_classification_type": "U",
        "meta_norad_cat_id": 44865,
        "meta_element_set_no": 999,
        "meta_rev_at_epoch": 4096,
        "meta_bstar": 0,
        "meta_mean_motion_dot": -2.4e-07,
        "meta_mean_motion_ddot": 0,
        "tle_line1": "1 44865U 19090B   25358.38492271 -.00000024  00000+0  00000+0 0  9990",
        "tle_line2": "2 44865  56.4041  68.6100 0015526 297.3537 130.2330  1.86231611 40965"
      },
      "geometry": {
        "type": "Point",
        "coordinates": [
          13.325534376418641,
          -51.06337182067629
        ]
      }
    },
    {
      "type": "Feature",
      "properties": {
        "norad_id": 45344,
        "name": "BEIDOU-3 G2 (C60)",
        "group": "beidou",
        "lat": 2.098320852183618,
        "lon": 99.72669294971635,
        "alt_km": 35794.60721174545,
        "timestamp": "2025-12-25T19:00:39.616397+00:00",
        "meta_object_name": "BEIDOU-3 G2 (C60)",
        "meta_object_id": "2020-017A",
        "meta_epoch": "2025-12-25T05:18:38.546208",
        "meta_mean_motion": 1.00272266,
        "meta_eccentricity": 0.00021063,
        "meta_inclination": 2.519,
        "meta_ra_of_asc_node": 44.1259,
        "meta_arg_of_pericenter": 237.0477,
        "meta_mean_anomaly": 332.517,
        "meta_ephemeris_type": 0,
        "meta_classification_type": "U",
        "meta_norad_cat_id": 45344,
        "meta_element_set_no": 999,
        "meta_rev_at_epoch": 2151,
        "meta_bstar": 0,
        "meta_mean_motion_dot": -1.2e-06,
        "meta_mean_motion_ddot": 0,
        "tle_line1": "1 45344U 20017A   25359.22127947 -.00000120  00000+0  00000+0 0  9990",
        "tle_line2": "2 45344   2.5190  44.1259 0002106 237.0477 332.5170  1.00272266 21519"
      },
      "geometry": {
        "type": "Point",
        "coordinates": [
          99.72669294971635,
          2.098320852183618
        ]
      }
    },
    {
      "type": "Feature",
      "properties": {
        "norad_id": 45807,
        "name": "BEIDOU-3 G3 (C61)",
        "group": "beidou",
        "lat": 1.8277132940460066,
        "lon": 130.28116328341073,
        "alt_km": 35798.586833890426,
        "timestamp": "2025-12-25T19:00:39.616409+00:00",
        "meta_object_name": "BEIDOU-3 G3 (C61)",
        "meta_object_id": "2020-040A",
        "meta_epoch": "2025-12-25T06:44:37.184352",
        "meta_mean_motion": 1.00267527,
        "meta_eccentricity": 0.00065935,
        "meta_inclination": 2.0195,
        "meta_ra_of_asc_node": 66.6879,
        "meta_arg_of_pericenter": 309.0076,
        "meta_mean_anomaly": 290.0312,
        "meta_ephemeris_type": 0,
        "meta_classification_type": "U",
        "meta_norad_cat_id": 45807,
        "meta_element_set_no": 999,
        "meta_rev_at_epoch": 2032,
        "meta_bstar": 0,
        "meta_mean_motion_dot": -3.33e-06,
        "meta_mean_motion_ddot": 0,
        "tle_line1": "1 45807U 20040A   25359.28098593 -.00000333  00000+0  00000+0 0  9996",
        "tle_line2": "2 45807   2.0195  66.6879 0006593 309.0076 290.0312  1.00267527 20327"
      },
      "geometry": {
        "type": "Point",
        "coordinates": [
          130.28116328341073,
          1.8277132940460066
        ]
      }
    },
    {
      "type": "Feature",
      "properties": {
        "norad_id": 56564,
        "name": "BEIDOU-3 G4 (C62)",
        "group": "beidou",
        "lat": -0.6555217507424853,
        "lon": 179.75985863688243,
        "alt_km": 35775.87603026352,
        "timestamp": "2025-12-25T19:00:39.616421+00:00",
        "meta_object_name": "BEIDOU-3 G4 (C62)",
        "meta_object_id": "2023-066A",
        "meta_epoch": "2025-12-25T04:17:38.775264",
        "meta_mean_motion": 1.00270858,
        "meta_eccentricity": 0.00025678,
        "meta_inclination": 0.7893,
        "meta_ra_of_asc_node": 303.0124,
        "meta_arg_of_pericenter": 225.1679,
        "meta_mean_anomaly": 150.2284,
        "meta_ephemeris_type": 0,
        "meta_classification_type": "U",
        "meta_norad_cat_id": 56564,
        "meta_element_set_no": 999,
        "meta_rev_at_epoch": 965,
        "meta_bstar": 0,
        "meta_mean_motion_dot": -9e-07,
        "meta_mean_motion_ddot": 0,
        "tle_line1": "1 56564U 23066A   25359.17892101 -.00000090  00000+0  00000+0 0  9994",
        "tle_line2": "2 56564   0.7893 303.0124 0002567 225.1679 150.2284  1.00270858  9653"
      },
      "geometry": {
        "type": "Point",
        "coordinates": [
          179.75985863688243,
          -0.6555217507424853
        ]
      }
    },
    {
      "type": "Feature",
      "properties": {
        "norad_id": 58654,
        "name": "BEIDOU-3 M28 (C50)",
        "group": "beidou",
        "lat": -37.02379597923941,
        "lon": 37.097446031144955,
        "alt_km": 21526.38605650452,
        "timestamp": "2025-12-25T19:00:39.616432+00:00",
        "meta_object_name": "BEIDOU-3 M28 (C50)",
        "meta_object_id": "2023-207A",
        "meta_epoch": "2025-12-23T17:08:25.533024",
        "meta_mean_motion": 1.86229696,
        "meta_eccentricity": 0.00028713,
        "meta_inclination": 55.5937,
        "meta_ra_of_asc_node": 68.2298,
        "meta_arg_of_pericenter": 275.1516,
        "meta_mean_anomaly": 84.8693,
        "meta_ephemeris_type": 0,
        "meta_classification_type": "U",
        "meta_norad_cat_id": 58654,
        "meta_element_set_no": 999,
        "meta_rev_at_epoch": 1357,
        "meta_bstar": 0,
        "meta_mean_motion_dot": -2.6e-07,
        "meta_mean_motion_ddot": 0,
        "tle_line1": "1 58654U 23207A   25357.71418441 -.00000026  00000+0  00000+0 0  9991",
        "tle_line2": "2 58654  55.5937  68.2298 0002871 275.1516  84.8693  1.86229696 13577"
      },
      "geometry": {
        "type": "Point",
        "coordinates": [
          37.097446031144955,
          -37.02379597923941
        ]
      }
    }
  ]
}